{
  "type": "FeatureCollection",
  "features": [
    {
      "type": "Feature",
      "properties": {
        "norad_id": 29268,
        "name": "ARIRANG-2 (KOMPSAT-2)",
        "group": "resource",
        "lat": -66.02930173414249,
        "lon": -26.96159828953212,
        "alt_km": 683.6865581455495,
        "timestamp": "2025-12-08T08:59:00.428589+00:00",
        "meta_object_name": "ARIRANG-2 (KOMPSAT-2)",
        "meta_object_id": "2006-031A",
        "meta_epoch": "2025-12-07T22:37:46.828704",
        "meta_mean_motion": 14.64486879,
        "meta_eccentricity": 0.00137126,
        "meta_inclination": 97.827,
        "meta_ra_of_asc_node": 170.6499,
        "meta_arg_of_pericenter": 325.0696,
        "meta_mean_anomaly": 169.2275,
        "meta_ephemeris_type": 0,
        "meta_classification_type": "U",
        "meta_norad_cat_id": 29268,
        "meta_element_set_no": 999,
        "meta_rev_at_epoch": 3348,
        "meta_bstar": 0.00012938866,
        "meta_mean_motion_dot": 6.41e-06,
        "meta_mean_motion_ddot": 0,
        "tle_line1": "1 29268U 06031A   25341.94290311  .00000641  00000+0  12939-3 0  9998",
        "tle_line2": "2 29268  97.8270 170.6499 0013712 325.0696 169.2275 14.64486879 33480"
      },
      "geometry": {
        "type": "Point",
        "coordinates": [
          -26.96159828953212,
          -66.02930173414249
        ]
      }
    },
    {
      "type": "Feature",
      "properties": {
        "norad_id": 29709,
        "name": "LAPAN-TUBSAT",
        "group": "resource",
        "lat": -29.453909463566944,
        "lon": 147.81354149870256,
        "alt_km": 622.580593697402,
        "timestamp": "2025-12-08T08:59:00.428600+00:00",
        "meta_object_name": "LAPAN-TUBSAT",
        "meta_object_id": "2007-001A",
        "meta_epoch": "2025-12-07T22:20:43.009440",
        "meta_mean_motion": 14.85658857,
        "meta_eccentricity": 0.00136421,
        "meta_inclination": 98.1253,
        "meta_ra_of_asc_node": 331.9888,
        "meta_arg_of_pericenter": 88.5532,
        "meta_mean_anomaly": 271.7245,
        "meta_ephemeris_type": 0,
        "meta_classification_type": "U",
        "meta_norad_cat_id": 29709,
        "meta_element_set_no": 999,
        "meta_rev_at_epoch": 2275,
        "meta_bstar": 0.00013296099,
        "meta_mean_motion_dot": 1.097e-05,
        "meta_mean_motion_ddot": 0,
        "tle_line1": "1 29709U 07001A   25341.93105335  .00001097  00000+0  13296-3 0  9999",
        "tle_line2": "2 29709  98.1253 331.9888 0013642  88.5532 271.7245 14.85658857 22755"
      },
      "geometry": {
        "type": "Point",
        "coordinates": [
          147.81354149870256,
          -29.453909463566944
        ]
      }
    },
    {
      "type": "Feature",
      "properties": {
        "norad_id": 31113,
        "name": "HAIYANG-1B",
        "group": "resource",
        "lat": -52.42781685501473,
        "lon": 135.85307051384672,
        "alt_km": 805.8036343102003,
        "timestamp": "2025-12-08T08:59:00.428611+00:00",
        "meta_object_name": "HAIYANG-1B",
        "meta_object_id": "2007-010A",
        "meta_epoch": "2025-12-07T23:30:24.882624",
        "meta_mean_motion": 14.30962449,
        "meta_eccentricity": 0.00144508,
        "meta_inclination": 98.3309,
        "meta_ra_of_asc_node": 326.4544,
        "meta_arg_of_pericenter": 51.2119,
        "meta_mean_anomaly": 309.0353,
        "meta_ephemeris_type": 0,
        "meta_classification_type": "U",
        "meta_norad_cat_id": 31113,
        "meta_element_set_no": 999,
        "meta_rev_at_epoch": 97328,
        "meta_bstar": 9.4169397e-05,
        "meta_mean_motion_dot": 2.06e-06,
        "meta_mean_motion_ddot": 0,
        "tle_line1": "1 31113U 07010A   25341.97945466  .00000206  00000+0  94169-4 0  9992",
        "tle_line2": "2 31113  98.3309 326.4544 0014450  51.2119 309.0353 14.30962449973288"
      },
      "geometry": {
        "type": "Point",
        "coordinates": [
          135.85307051384672,
          -52.42781685501473
        ]
      }
    },
    {
      "type": "Feature",
      "properties": {
        "norad_id": 31598,
        "name": "COSMO-SKYMED 1",
        "group": "resource",
        "lat": 7.419713172169574,
        "lon": 166.7112873829361,
        "alt_km": 581.9407353083989,
        "timestamp": "2025-12-08T08:59:00.428622+00:00",
        "meta_object_name": "COSMO-SKYMED 1",
        "meta_object_id": "2007-023A",
        "meta_epoch": "2025-12-07T23:18:59.696064",
        "meta_mean_motion": 14.95709827,
        "meta_eccentricity": 0.00010718,
        "meta_inclination": 97.8834,
        "meta_ra_of_asc_node": 167.34,
        "meta_arg_of_pericenter": 80.0402,
        "meta_mean_anomaly": 280.094,
        "meta_ephemeris_type": 0,
        "meta_classification_type": "U",
        "meta_norad_cat_id": 31598,
        "meta_element_set_no": 999,
        "meta_rev_at_epoch": 119,
        "meta_bstar": 0.00044685146,
        "meta_mean_motion_dot": 4.917e-05,
        "meta_mean_motion_ddot": 0,
        "tle_line1": "1 31598U 07023A   25341.97152426  .00004917  00000+0  44685-3 0  9999",
        "tle_line2": "2 31598  97.8834 167.3400 0001071  80.0402 280.0940 14.95709827  1197"
      },
      "geometry": {
        "type": "Point",
        "coordinates": [
          166.7112873829361,
          7.419713172169574
        ]
      }
    },
    {
      "type": "Feature",
      "properties": {
        "norad_id": 31698,
        "name": "TERRASAR-X",
        "group": "resource",
        "lat": 15.978558491528082,
        "lon": -14.328039344831286,
        "alt_km": 508.74997258185977,
        "timestamp": "2025-12-08T08:59:00.428633+00:00",
        "meta_object_name": "TERRASAR-X",
        "meta_object_id": "2007-026A",
        "meta_epoch": "2025-12-07T13:56:33.832032",
        "meta_mean_motion": 15.19154381,
        "meta_eccentricity": 0.0001715,
        "meta_inclination": 97.445,
        "meta_ra_of_asc_node": 347.036,
        "meta_arg_of_pericenter": 88.3312,
        "meta_mean_anomaly": 271.8119,
        "meta_ephemeris_type": 0,
        "meta_classification_type": "U",
        "meta_norad_cat_id": 31698,
        "meta_element_set_no": 999,
        "meta_rev_at_epoch": 2413,
        "meta_bstar": 0.0001437554,
        "meta_mean_motion_dot": 2.953e-05,
        "meta_mean_motion_ddot": 0,
        "tle_line1": "1 31698U 07026A   25341.58094713  .00002953  00000+0  14376-3 0  9996",
        "tle_line2": "2 31698  97.4450 347.0360 0001715  88.3312 271.8119 15.19154381 24137"
      },
      "geometry": {
        "type": "Point",
        "coordinates": [
          -14.328039344831286,
          15.978558491528082
        ]
      }
    },
    {
      "type": "Feature",
      "properties": {
        "norad_id": 32060,
        "name": "WORLDVIEW-1 (WV-1)",
        "group": "resource",
        "lat": -67.30432289779553,
        "lon": 117.98355561909568,
        "alt_km": 499.8274737014872,
        "timestamp": "2025-12-08T08:59:00.428644+00:00",
        "meta_object_name": "WORLDVIEW-1 (WV-1)",
        "meta_object_id": "2007-041A",
        "meta_epoch": "2025-12-07T20:40:54.132096",
        "meta_mean_motion": 15.24570017,
        "meta_eccentricity": 7.601e-05,
        "meta_inclination": 97.3846,
        "meta_ra_of_asc_node": 99.4124,
        "meta_arg_of_pericenter": 101.7388,
        "meta_mean_anomaly": 258.3935,
        "meta_ephemeris_type": 0,
        "meta_classification_type": "U",
        "meta_norad_cat_id": 32060,
        "meta_element_set_no": 999,
        "meta_rev_at_epoch": 1373,
        "meta_bstar": 0.00054019353,
        "meta_mean_motion_dot": 0.00013249,
        "meta_mean_motion_ddot": 0,
        "tle_line1": "1 32060U 07041A   25341.86173764  .00013249  00000+0  54019-3 0  9990",
        "tle_line2": "2 32060  97.3846  99.4124 0000760 101.7388 258.3935 15.24570017 13731"
      },
      "geometry": {
        "type": "Point",
        "coordinates": [
          117.98355561909568,
          -67.30432289779553
        ]
      }
    },
    {
      "type": "Feature",
      "properties": {
        "norad_id": 32289,
        "name": "YAOGAN-3",
        "group": "resource",
        "lat": -49.88638111345775,
        "lon": 18.44760330873433,
        "alt_km": 605.9840575846847,
        "timestamp": "2025-12-08T08:59:00.428655+00:00",
        "meta_object_name": "YAOGAN-3",
        "meta_object_id": "2007-055A",
        "meta_epoch": "2025-12-07T23:32:18.180672",
        "meta_mean_motion": 14.8982405,
        "meta_eccentricity": 0.00014451,
        "meta_inclination": 97.8367,
        "meta_ra_of_asc_node": 8.6487,
        "meta_arg_of_pericenter": 76.6313,
        "meta_mean_anomaly": 283.5066,
        "meta_ephemeris_type": 0,
        "meta_classification_type": "U",
        "meta_norad_cat_id": 32289,
        "meta_element_set_no": 999,
        "meta_rev_at_epoch": 97738,
        "meta_bstar": 0.0003301689,
        "meta_mean_motion_dot": 3.115e-05,
        "meta_mean_motion_ddot": 0,
        "tle_line1": "1 32289U 07055A   25341.98076598  .00003115  00000+0  33017-3 0  9994",
        "tle_line2": "2 32289  97.8367   8.6487 0001445  76.6313 283.5066 14.89824050977384"
      },
      "geometry": {
        "type": "Point",
        "coordinates": [
          18.44760330873433,
          -49.88638111345775
        ]
      }
    }
  ]
}